[{"OBJECT_NAME":"STARLINK-1067","OBJECT_ID":"2019-074BL","EPOCH":"2026-01-28T00:00:02.999808","MEAN_MOTION":15.46783393,"ECCENTRICITY":0.00050256,"INCLINATION":53.0551,"RA_OF_ASC_NODE":40.1764,"ARG_OF_PERICENTER":64.4087,"MEAN_ANOMALY":225.5595,"EPHEMERIS_TYPE":0,"CLASSIFICATION_TYPE":"U","NORAD_CAT_ID":44771,"ELEMENT_SET_NO":999,"REV_AT_EPOCH":582,"BSTAR":0.0019289512,"MEAN_MOTION_DOT":0.00099102,"MEAN_MOTION_DDOT":0},{"OBJECT_NAME":"STARLINK-1068","OBJECT_ID":"2019-074BM","EPOCH":"2026-01-28T00:00:02.999808","MEAN_MOTION":15.53575761,"ECCENTRICITY":0.00022979,"INCLINATION":53.0537,"RA_OF_ASC_NODE":17.7194,"ARG_OF_PERICENTER":89.4876,"MEAN_ANOMALY":60.2538,"EPHEMERIS_TYPE":0,"CLASSIFICATION_TYPE":"U","NORAD_CAT_ID":44772,"ELEMENT_SET_NO":999,"REV_AT_EPOCH":564,"BSTAR":0.0022893124,"MEAN_MOTION_DOT":0.0015072,"MEAN_MOTION_DDOT":0},{"OBJECT_NAME":"STARLINK-1112","OBJECT_ID":"2020-001M","EPOCH":"2026-01-28T00:00:02.999808","MEAN_MOTION":15.81436958,"ECCENTRICITY":0.00019244,"INCLINATION":53.0404,"RA_OF_ASC_NODE":89.4008,"ARG_OF_PERICENTER":319.1651,"MEAN_ANOMALY":127.106,"EPHEMERIS_TYPE":0,"CLASSIFICATION_TYPE":"U","NORAD_CAT_ID":44925,"ELEMENT_SET_NO":999,"REV_AT_EPOCH":583,"BSTAR":0.001427116,"MEAN_MOTION_DOT":0.00298647,"MEAN_MOTION_DDOT":0},{"OBJECT_NAME":"STARLINK-1114","OBJECT_ID":"2020-001P","EPOCH":"2026-01-28T00:00:02.999808","MEAN_MOTION":15.43180777,"ECCENTRICITY":0.00031152,"INCLINATION":53.0526,"RA_OF_ASC_NODE":163.6451,"ARG_OF_PERICENTER":332.7194,"MEAN_ANOMALY":189.745,"EPHEMERIS_TYPE":0,"CLASSIFICATION_TYPE":"U","NORAD_CAT_ID":44927,"ELEMENT_SET_NO":999,"REV_AT_EPOCH":576,"BSTAR":0.0016714526,"MEAN_MOTION_DOT":0.00075612,"MEAN_MOTION_DDOT":0},{"OBJECT_NAME":"STARLINK-1123","OBJECT_ID":"2020-001S","EPOCH":"2026-01-27T18:53:45.658464","MEAN_MOTION":15.06404253,"ECCENTRICITY":0.00014509,"INCLINATION":53.0539,"RA_OF_ASC_NODE":170.2376,"ARG_OF_PERICENTER":74.3089,"MEAN_ANOMALY":285.806,"EPHEMERIS_TYPE":0,"CLASSIFICATION_TYPE":"U","NORAD_CAT_ID":44930,"ELEMENT_SET_NO":999,"REV_AT_EPOCH":33368,"BSTAR":7.4954565e-5,"MEAN_MOTION_DOT":8.35e-6,"MEAN_MOTION_DDOT":0},{"OBJECT_NAME":"STARLINK-1144","OBJECT_ID":"2020-001V","EPOCH":"2026-01-28T00:00:02.999808","MEAN_MOTION":15.97985792,"ECCENTRICITY":0.00072715,"INCLINATION":53.0322,"RA_OF_ASC_NODE":59.8179,"ARG_OF_PERICENTER":25.4301,"MEAN_ANOMALY":25.0244,"EPHEMERIS_TYPE":0,"CLASSIFICATION_TYPE":"U","NORAD_CAT_ID":44933,"ELEMENT_SET_NO":999,"REV_AT_EPOCH":596,"BSTAR":0.00099428393,"MEAN_MOTION_DOT":0.00464188,"MEAN_MOTION_DDOT":0.00010142128},{"OBJECT_NAME":"STARLINK-1094","OBJECT_ID":"2020-001AD","EPOCH":"2026-01-28T00:00:02.999808","MEAN_MOTION":15.25999357,"ECCENTRICITY":0.00014248,"INCLINATION":53.1397,"RA_OF_ASC_NODE":148.5189,"ARG_OF_PERICENTER":91.1391,"MEAN_ANOMALY":335.3741,"EPHEMERIS_TYPE":0,"CLASSIFICATION_TYPE":"U","NORAD_CAT_ID":44941,"ELEMENT_SET_NO":999,"REV_AT_EPOCH":575,"BSTAR":0.052955788,"MEAN_MOTION_DOT":0.01511664,"MEAN_MOTION_DDOT":0},{"OBJECT_NAME":"STARLINK-1122","OBJECT_ID":"2020-001AM","EPOCH":"2026-01-28T00:00:02.999808","MEAN_MOTION":15.25973157,"ECCENTRICITY":0.00012308,"INCLINATION":53.1409,"RA_OF_ASC_NODE":148.5072,"ARG_OF_PERICENTER":75.1897,"MEAN_ANOMALY":236.7914,"EPHEMERIS_TYPE":0,"CLASSIFICATION_TYPE":"U","NORAD_CAT_ID":44949,"ELEMENT_SET_NO":999,"REV_AT_EPOCH":574,"BSTAR":0.053834049,"MEAN_MOTION_DOT":0.01538067,"MEAN_MOTION_DDOT":0},{"OBJECT_NAME":"STARLINK-1080","OBJECT_ID":"2020-001AZ","EPOCH":"2026-01-28T00:00:02.999808","MEAN_MOTION":15.41861149,"ECCENTRICITY":0.00056922,"INCLINATION":53.0532,"RA_OF_ASC_NODE":121.729,"ARG_OF_PERICENTER":341.5254,"MEAN_ANOMALY":181.3937,"EPHEMERIS_TYPE":0,"CLASSIFICATION_TYPE":"U","NORAD_CAT_ID":44961,"ELEMENT_SET_NO":999,"REV_AT_EPOCH":566,"BSTAR":0.0019287934,"MEAN_MOTION_DOT":0.00083643,"MEAN_MOTION_DDOT":0},{"OBJECT_NAME":"STARLINK-1090","OBJECT_ID":"2020-001BG","EPOCH":"2026-01-27T16:35:45.311424","MEAN_MOTION":15.06419465,"ECCENTRICITY":0.00018072,"INCLINATION":53.0557,"RA_OF_ASC_NODE":130.6674,"ARG_OF_PERICENTER":100.5592,"MEAN_ANOMALY":259.56,"EPHEMERIS_TYPE":0,"CLASSIFICATION_TYPE":"U","NORAD_CAT_ID":44968,"ELEMENT_SET_NO":999,"REV_AT_EPOCH":33423,"BSTAR":-0.00027556748,"MEAN_MOTION_DOT":-4.386e-5,"MEAN_MOTION_DDOT":0},{"OBJECT_NAME":"STARLINK-1132","OBJECT_ID":"2020-006A","EPOCH":"2026-01-27T11:11:27.139776","MEAN_MOTION":15.37174669,"ECCENTRICITY":0.0001963,"INCLINATION":53.159,"RA_OF_ASC_NODE":88.5283,"ARG_OF_PERICENTER":70.3539,"MEAN_ANOMALY":289.7677,"EPHEMERIS_TYPE":0,"CLASSIFICATION_TYPE":"U","NORAD_CAT_ID":45044,"ELEMENT_SET_NO":999,"REV_AT_EPOCH":33057,"BSTAR":0.0022167642,"MEAN_MOTION_DOT":0.00082377,"MEAN_MOTION_DDOT":0},{"OBJECT_NAME":"STARLINK-1131","OBJECT_ID":"2020-006D","EPOCH":"2026-01-28T00:00:02.999808","MEAN_MOTION":15.17305505,"ECCENTRICITY":0.00012259,"INCLINATION":53.1002,"RA_OF_ASC_NODE":109.5953,"ARG_OF_PERICENTER":84.094,"MEAN_ANOMALY":266.5745,"EPHEMERIS_TYPE":0,"CLASSIFICATION_TYPE":"U","NORAD_CAT_ID":45047,"ELEMENT_SET_NO":999,"REV_AT_EPOCH":574,"BSTAR":0.041894513,"MEAN_MOTION_DOT":0.00913606,"MEAN_MOTION_DDOT":0},{"OBJECT_NAME":"STARLINK-1134","OBJECT_ID":"2020-006E","EPOCH":"2026-01-27T09:11:29.258592","MEAN_MOTION":15.37898887,"ECCENTRICITY":0.00048715,"INCLINATION":53.0359,"RA_OF_ASC_NODE":73.9737,"ARG_OF_PERICENTER":55.242,"MEAN_ANOMALY":304.904,"EPHEMERIS_TYPE":0,"CLASSIFICATION_TYPE":"U","NORAD_CAT_ID":45048,"ELEMENT_SET_NO":999,"REV_AT_EPOCH":33077,"BSTAR":0.0024579209,"MEAN_MOTION_DOT":0.0009373,"MEAN_MOTION_DDOT":0},{"OBJECT_NAME":"STARLINK-1156","OBJECT_ID":"2020-006L","EPOCH":"2026-01-28T00:00:02.999808","MEAN_MOTION":15.11253737,"ECCENTRICITY":8.044e-5,"INCLINATION":53.0735,"RA_OF_ASC_NODE":109.2375,"ARG_OF_PERICENTER":61.8932,"MEAN_ANOMALY":347.5694,"EPHEMERIS_TYPE":0,"CLASSIFICATION_TYPE":"U","NORAD_CAT_ID":45054,"ELEMENT_SET_NO":999,"REV_AT_EPOCH":569,"BSTAR":0.076987421,"MEAN_MOTION_DOT":0.01432346,"MEAN_MOTION_DDOT":0},{"OBJECT_NAME":"STARLINK-1159","OBJECT_ID":"2020-006P","EPOCH":"2026-01-28T00:00:02.999808","MEAN_MOTION":15.67878481,"ECCENTRICITY":0.00044725,"INCLINATION":53.05,"RA_OF_ASC_NODE":77.5554,"ARG_OF_PERICENTER":328.3465,"MEAN_ANOMALY":232.3622,"EPHEMERIS_TYPE":0,"CLASSIFICATION_TYPE":"U","NORAD_CAT_ID":45057,"ELEMENT_SET_NO":999,"REV_AT_EPOCH":590,"BSTAR":0.0017975812,"MEAN_MOTION_DOT":0.00206606,"MEAN_MOTION_DDOT":0},{"OBJECT_NAME":"STARLINK-1166","OBJECT_ID":"2020-006S","EPOCH":"2026-01-27T19:50:12.758784","MEAN_MOTION":15.39514209,"ECCENTRICITY":0.00015708,"INCLINATION":53.0539,"RA_OF_ASC_NODE":106.5965,"ARG_OF_PERICENTER":41.6001,"MEAN_ANOMALY":318.5122,"EPHEMERIS_TYPE":0,"CLASSIFICATION_TYPE":"U","NORAD_CAT_ID":45060,"ELEMENT_SET_NO":999,"REV_AT_EPOCH":33035,"BSTAR":0.0021227652,"MEAN_MOTION_DOT":0.00085173,"MEAN_MOTION_DDOT":0}]
