STARLINK-1067           
1 44771U 19074BL  26028.00003472  .00099102  00000+0  19290-2 0  9991
2 44771  53.0551  40.1764 0005025  64.4087 225.5595 15.46783393  5824
STARLINK-1068           
1 44772U 19074BM  26028.00003472  .00150720  00000+0  22893-2 0  9999
2 44772  53.0537  17.7194 0002297  89.4876  60.2538 15.53575761  5644
STARLINK-1112           
1 44925U 20001M   26028.00003472  .00298647  00000+0  14271-2 0  9993
2 44925  53.0404  89.4008 0001924 319.1651 127.1060 15.81436958  5836
STARLINK-1114           
1 44927U 20001P   26028.00003472  .00075612  00000+0  16715-2 0  9995
2 44927  53.0526 163.6451 0003115 332.7194 189.7450 15.43180777  5769
STARLINK-1123           
1 44930U 20001S   26027.78733401  .00000835  00000+0  74955-4 0  9992
2 44930  53.0539 170.2376 0001450  74.3089 285.8060 15.06404253333686
STARLINK-1144           
1 44933U 20001V   26028.00003472  .00464188  10142-3  99428-3 0  9997
2 44933  53.0322  59.8179 0007271  25.4301  25.0244 15.97985792  5960
STARLINK-1094           
1 44941U 20001AD  26028.00003472  .01511664  00000+0  52956-1 0  9990
2 44941  53.1397 148.5189 0001424  91.1391 335.3741 15.25999357  5751
STARLINK-1122           
1 44949U 20001AM  26028.00003472  .01538067  00000+0  53834-1 0  9990
2 44949  53.1409 148.5072 0001230  75.1897 236.7914 15.25973157  5747
STARLINK-1080           
1 44961U 20001AZ  26028.00003472  .00083643  00000+0  19288-2 0  9994
2 44961  53.0532 121.7290 0005692 341.5254 181.3937 15.41861149  5661
STARLINK-1090           
1 44968U 20001BG  26027.69149666 -.00004386  00000+0 -27557-3 0  9999
2 44968  53.0557 130.6674 0001807 100.5592 259.5600 15.06419465334236
STARLINK-1132           
1 45044U 20006A   26027.46628634  .00082377  00000+0  22168-2 0  9998
2 45044  53.1590  88.5283 0001963  70.3539 289.7677 15.37174669330575
STARLINK-1131           
1 45047U 20006D   26028.00003472  .00913606  00000+0  41895-1 0  9994
2 45047  53.1002 109.5953 0001225  84.0940 266.5745 15.17305505  5743
STARLINK-1134           
1 45048U 20006E   26027.38297753  .00093730  00000+0  24579-2 0  9990
2 45048  53.0359  73.9737 0004871  55.2420 304.9040 15.37898887330776
STARLINK-1156           
1 45054U 20006L   26028.00003472  .01432346  00000+0  76987-1 0  9990
2 45054  53.0735 109.2375 0000804  61.8932 347.5694 15.11253737  5694
STARLINK-1159           
1 45057U 20006P   26028.00003472  .00206606  00000+0  17976-2 0  9994
2 45057  53.0500  77.5554 0004472 328.3465 232.3622 15.67878481  5906
STARLINK-1166           
1 45060U 20006S   26027.82653656  .00085173  00000+0  21228-2 0  9991
2 45060  53.0539 106.5965 0001570  41.6001 318.5122 15.39514209330354
